[{"OBJECT_NAME":"KUIPER-00177","OBJECT_ID":"2026-030C","EPOCH":"2026-03-04T14:39:20.916864","MEAN_MOTION":15.36285471,"ECCENTRICITY":9.567e-5,"INCLINATION":51.8828,"RA_OF_ASC_NODE":243.5337,"ARG_OF_PERICENTER":15.9752,"MEAN_ANOMALY":344.1264,"EPHEMERIS_TYPE":0,"CLASSIFICATION_TYPE":"U","NORAD_CAT_ID":67766,"ELEMENT_SET_NO":999,"REV_AT_EPOCH":431,"BSTAR":0.00086744808,"MEAN_MOTION_DOT":0.00030901,"MEAN_MOTION_DDOT":0},{"OBJECT_NAME":"KUIPER-00178","OBJECT_ID":"2026-030D","EPOCH":"2026-03-04T13:24:55.129824","MEAN_MOTION":15.35296462,"ECCENTRICITY":0.00060542,"INCLINATION":51.883,"RA_OF_ASC_NODE":243.9344,"ARG_OF_PERICENTER":31.7391,"MEAN_ANOMALY":328.3959,"EPHEMERIS_TYPE":0,"CLASSIFICATION_TYPE":"U","NORAD_CAT_ID":67767,"ELEMENT_SET_NO":999,"REV_AT_EPOCH":430,"BSTAR":0.0011055068,"MEAN_MOTION_DOT":0.00038302,"MEAN_MOTION_DDOT":0},{"OBJECT_NAME":"KUIPER-00180","OBJECT_ID":"2026-030E","EPOCH":"2026-03-04T14:06:22.204800","MEAN_MOTION":15.32107619,"ECCENTRICITY":0.00146455,"INCLINATION":51.8795,"RA_OF_ASC_NODE":244.1127,"ARG_OF_PERICENTER":53.4799,"MEAN_ANOMALY":306.7532,"EPHEMERIS_TYPE":0,"CLASSIFICATION_TYPE":"U","NORAD_CAT_ID":67768,"ELEMENT_SET_NO":999,"REV_AT_EPOCH":430,"BSTAR":0.0015492499,"MEAN_MOTION_DOT":0.00048838,"MEAN_MOTION_DDOT":0},{"OBJECT_NAME":"KUIPER-00197","OBJECT_ID":"2026-030F","EPOCH":"2026-03-04T14:42:20.683296","MEAN_MOTION":15.36167949,"ECCENTRICITY":0.00013417,"INCLINATION":51.8829,"RA_OF_ASC_NODE":243.5471,"ARG_OF_PERICENTER":52.8027,"MEAN_ANOMALY":307.3081,"EPHEMERIS_TYPE":0,"CLASSIFICATION_TYPE":"U","NORAD_CAT_ID":67769,"ELEMENT_SET_NO":999,"REV_AT_EPOCH":431,"BSTAR":0.0011094867,"MEAN_MOTION_DOT":0.00039526,"MEAN_MOTION_DDOT":0},{"OBJECT_NAME":"KUIPER-00198","OBJECT_ID":"2026-030G","EPOCH":"2026-03-04T13:15:22.901760","MEAN_MOTION":15.35805453,"ECCENTRICITY":0.00030101,"INCLINATION":51.8811,"RA_OF_ASC_NODE":243.8873,"ARG_OF_PERICENTER":33.7209,"MEAN_ANOMALY":326.3968,"EPHEMERIS_TYPE":0,"CLASSIFICATION_TYPE":"U","NORAD_CAT_ID":67770,"ELEMENT_SET_NO":999,"REV_AT_EPOCH":430,"BSTAR":0.0011086826,"MEAN_MOTION_DOT":0.00039038,"MEAN_MOTION_DDOT":0},{"OBJECT_NAME":"KUIPER-00199","OBJECT_ID":"2026-030H","EPOCH":"2026-03-04T13:45:24.165504","MEAN_MOTION":15.34133997,"ECCENTRICITY":0.00103721,"INCLINATION":51.8802,"RA_OF_ASC_NODE":244.0199,"ARG_OF_PERICENTER":45.8609,"MEAN_ANOMALY":314.3228,"EPHEMERIS_TYPE":0,"CLASSIFICATION_TYPE":"U","NORAD_CAT_ID":67771,"ELEMENT_SET_NO":999,"REV_AT_EPOCH":430,"BSTAR":0.0011773145,"MEAN_MOTION_DOT":0.0003937,"MEAN_MOTION_DDOT":0},{"OBJECT_NAME":"KUIPER-00200","OBJECT_ID":"2026-030J","EPOCH":"2026-03-04T14:30:50.923584","MEAN_MOTION":15.36806143,"ECCENTRICITY":0.00013538,"INCLINATION":51.8804,"RA_OF_ASC_NODE":243.4926,"ARG_OF_PERICENTER":213.3857,"MEAN_ANOMALY":146.7044,"EPHEMERIS_TYPE":0,"CLASSIFICATION_TYPE":"U","NORAD_CAT_ID":67772,"ELEMENT_SET_NO":999,"REV_AT_EPOCH":431,"BSTAR":0.00089164223,"MEAN_MOTION_DOT":0.00032322,"MEAN_MOTION_DDOT":0},{"OBJECT_NAME":"KUIPER-00203","OBJECT_ID":"2026-030K","EPOCH":"2026-03-04T12:00:00.999648","MEAN_MOTION":15.24370243,"ECCENTRICITY":0.00117675,"INCLINATION":51.8816,"RA_OF_ASC_NODE":244.559,"ARG_OF_PERICENTER":47.3852,"MEAN_ANOMALY":157.6859,"EPHEMERIS_TYPE":0,"CLASSIFICATION_TYPE":"U","NORAD_CAT_ID":67773,"ELEMENT_SET_NO":999,"REV_AT_EPOCH":285,"BSTAR":0.00032607488,"MEAN_MOTION_DOT":7.775e-5,"MEAN_MOTION_DDOT":0},{"OBJECT_NAME":"KUIPER-00205","OBJECT_ID":"2026-030L","EPOCH":"2026-03-04T14:43:24.653856","MEAN_MOTION":15.36145161,"ECCENTRICITY":0.00027137,"INCLINATION":51.8808,"RA_OF_ASC_NODE":243.5476,"ARG_OF_PERICENTER":7.1748,"MEAN_ANOMALY":352.9277,"EPHEMERIS_TYPE":0,"CLASSIFICATION_TYPE":"U","NORAD_CAT_ID":67774,"ELEMENT_SET_NO":999,"REV_AT_EPOCH":431,"BSTAR":0.0008486709,"MEAN_MOTION_DOT":0.00030085,"MEAN_MOTION_DDOT":0},{"OBJECT_NAME":"KUIPER-00208","OBJECT_ID":"2026-030M","EPOCH":"2026-03-04T14:02:40.082496","MEAN_MOTION":15.32640706,"ECCENTRICITY":0.00145997,"INCLINATION":51.882,"RA_OF_ASC_NODE":244.1045,"ARG_OF_PERICENTER":46.1253,"MEAN_ANOMALY":314.0935,"EPHEMERIS_TYPE":0,"CLASSIFICATION_TYPE":"U","NORAD_CAT_ID":67775,"ELEMENT_SET_NO":999,"REV_AT_EPOCH":430,"BSTAR":0.0015455564,"MEAN_MOTION_DOT":0.00049551,"MEAN_MOTION_DDOT":0},{"OBJECT_NAME":"KUIPER-00209","OBJECT_ID":"2026-030N","EPOCH":"2026-03-04T14:08:57.685920","MEAN_MOTION":15.31206419,"ECCENTRICITY":0.0012882,"INCLINATION":51.8811,"RA_OF_ASC_NODE":244.1297,"ARG_OF_PERICENTER":54.2707,"MEAN_ANOMALY":305.9473,"EPHEMERIS_TYPE":0,"CLASSIFICATION_TYPE":"U","NORAD_CAT_ID":67776,"ELEMENT_SET_NO":999,"REV_AT_EPOCH":430,"BSTAR":-0.0021187739,"MEAN_MOTION_DOT":-0.00064797,"MEAN_MOTION_DDOT":0},{"OBJECT_NAME":"KUIPER-00213","OBJECT_ID":"2026-030P","EPOCH":"2026-03-04T14:03:44.226720","MEAN_MOTION":15.32535272,"ECCENTRICITY":0.00149914,"INCLINATION":51.8793,"RA_OF_ASC_NODE":244.1001,"ARG_OF_PERICENTER":49.8208,"MEAN_ANOMALY":310.4087,"EPHEMERIS_TYPE":0,"CLASSIFICATION_TYPE":"U","NORAD_CAT_ID":67777,"ELEMENT_SET_NO":999,"REV_AT_EPOCH":430,"BSTAR":0.0012232649,"MEAN_MOTION_DOT":0.00038961,"MEAN_MOTION_DDOT":0},{"OBJECT_NAME":"KUIPER-00214","OBJECT_ID":"2026-030Q","EPOCH":"2026-03-04T14:34:28.520256","MEAN_MOTION":15.36564329,"ECCENTRICITY":8.301e-5,"INCLINATION":51.8838,"RA_OF_ASC_NODE":243.5137,"ARG_OF_PERICENTER":206.2308,"MEAN_ANOMALY":153.8636,"EPHEMERIS_TYPE":0,"CLASSIFICATION_TYPE":"U","NORAD_CAT_ID":67778,"ELEMENT_SET_NO":999,"REV_AT_EPOCH":431,"BSTAR":0.00083074308,"MEAN_MOTION_DOT":0.00029842,"MEAN_MOTION_DDOT":0},{"OBJECT_NAME":"KUIPER-00215","OBJECT_ID":"2026-030R","EPOCH":"2026-03-04T13:43:09.941376","MEAN_MOTION":15.34228528,"ECCENTRICITY":0.00100863,"INCLINATION":51.8835,"RA_OF_ASC_NODE":244.0186,"ARG_OF_PERICENTER":44.8149,"MEAN_ANOMALY":315.365,"EPHEMERIS_TYPE":0,"CLASSIFICATION_TYPE":"U","NORAD_CAT_ID":67779,"ELEMENT_SET_NO":999,"REV_AT_EPOCH":430,"BSTAR":0.0011311694,"MEAN_MOTION_DOT":0.00037915,"MEAN_MOTION_DDOT":0},{"OBJECT_NAME":"KUIPER-00218","OBJECT_ID":"2026-030S","EPOCH":"2026-03-04T13:29:57.097824","MEAN_MOTION":15.34949414,"ECCENTRICITY":0.00066019,"INCLINATION":51.883,"RA_OF_ASC_NODE":243.9572,"ARG_OF_PERICENTER":35.8876,"MEAN_ANOMALY":324.2552,"EPHEMERIS_TYPE":0,"CLASSIFICATION_TYPE":"U","NORAD_CAT_ID":67780,"ELEMENT_SET_NO":999,"REV_AT_EPOCH":430,"BSTAR":0.0011992717,"MEAN_MOTION_DOT":0.00041142,"MEAN_MOTION_DDOT":0},{"OBJECT_NAME":"KUIPER-00220","OBJECT_ID":"2026-030T","EPOCH":"2026-03-04T13:38:24.620928","MEAN_MOTION":15.3452586,"ECCENTRICITY":0.0008264,"INCLINATION":51.8802,"RA_OF_ASC_NODE":243.9889,"ARG_OF_PERICENTER":41.1684,"MEAN_ANOMALY":318.9924,"EPHEMERIS_TYPE":0,"CLASSIFICATION_TYPE":"U","NORAD_CAT_ID":67781,"ELEMENT_SET_NO":999,"REV_AT_EPOCH":430,"BSTAR":0.001179069,"MEAN_MOTION_DOT":0.00039906,"MEAN_MOTION_DDOT":0}]
