KUIPER-00177            
1 67766U 26030C   26063.61065876  .00030901  00000+0  86745-3 0  9994
2 67766  51.8828 243.5337 0000956  15.9752 344.1264 15.36285471  4316
KUIPER-00178            
1 67767U 26030D   26063.55897141  .00038302  00000+0  11055-2 0  9990
2 67767  51.8830 243.9344 0006054  31.7391 328.3959 15.35296462  4307
KUIPER-00180            
1 67768U 26030E   26063.58775700  .00048838  00000+0  15492-2 0  9994
2 67768  51.8795 244.1127 0014645  53.4799 306.7532 15.32107619  4307
KUIPER-00197            
1 67769U 26030F   26063.61273939  .00039526  00000+0  11095-2 0  9995
2 67769  51.8829 243.5471 0001341  52.8027 307.3081 15.36167949  4310
KUIPER-00198            
1 67770U 26030G   26063.55234840  .00039038  00000+0  11087-2 0  9997
2 67770  51.8811 243.8873 0003010  33.7209 326.3968 15.35805453  4309
KUIPER-00199            
1 67771U 26030H   26063.57319636  .00039370  00000+0  11773-2 0  9998
2 67771  51.8802 244.0199 0010372  45.8609 314.3228 15.34133997  4303
KUIPER-00200            
1 67772U 26030J   26063.60475606  .00032322  00000+0  89164-3 0  9993
2 67772  51.8804 243.4926 0001353 213.3857 146.7044 15.36806143  4319
KUIPER-00203            
1 67773U 26030K   26063.50001157  .00007775  00000+0  32607-3 0  9993
2 67773  51.8816 244.5590 0011767  47.3852 157.6859 15.24370243  2858
KUIPER-00205            
1 67774U 26030L   26063.61347979  .00030085  00000+0  84867-3 0  9996
2 67774  51.8808 243.5476 0002713   7.1748 352.9277 15.36145161  4310
KUIPER-00208            
1 67775U 26030M   26063.58518614  .00049551  00000+0  15456-2 0  9994
2 67775  51.8820 244.1045 0014599  46.1253 314.0935 15.32640706  4303
KUIPER-00209            
1 67776U 26030N   26063.58955655 -.00064797  00000+0 -21188-2 0  9995
2 67776  51.8811 244.1297 0012882  54.2707 305.9473 15.31206419  4304
KUIPER-00213            
1 67777U 26030P   26063.58592855  .00038961  00000+0  12233-2 0  9998
2 67777  51.8793 244.1001 0014991  49.8208 310.4087 15.32535272  4301
KUIPER-00214            
1 67778U 26030Q   26063.60727454  .00029842  00000+0  83074-3 0  9997
2 67778  51.8838 243.5137 0000830 206.2308 153.8636 15.36564329  4311
KUIPER-00215            
1 67779U 26030R   26063.57164284  .00037915  00000+0  11312-2 0  9995
2 67779  51.8835 244.0186 0010086  44.8149 315.3650 15.34228528  4308
KUIPER-00218            
1 67780U 26030S   26063.56246641  .00041142  00000+0  11993-2 0  9996
2 67780  51.8830 243.9572 0006601  35.8876 324.2552 15.34949414  4301
KUIPER-00220            
1 67781U 26030T   26063.56834052  .00039906  00000+0  11791-2 0  9997
2 67781  51.8802 243.9889 0008264  41.1684 318.9924 15.34525860  4304
